{
  "norad_id": 68963,
  "name": "STARLINK-36764",
  "history": [
    {
      "epoch": "2026-05-12T20:00:01.999008Z",
      "apogee_km": 328.20534351955666,
      "perigee_km": 327.69165737022286,
      "latitude_deg": 14.358954949880635,
      "longitude_deg": 172.02960342148296,
      "height_km": 327.9339518321371,
      "semi_major_axis_km": 6706.0855004448895,
      "eccentricity": 3.83e-05,
      "inclination_deg": 53.1595,
      "raan_deg": 331.646,
      "arg_perigee_deg": 58.1693,
      "mean_anomaly_deg": 319.8732,
      "mean_motion_rev_day": 15.80880828
    }
  ]
}