STARLINK-36764          
1 68963U 26099N   26132.83335648  .00000297  00000+0  50352-5 0  9999
2 68963  53.1595 331.6460 0000383  58.1693 319.8732 15.80880828  3038
